{
  "type": "FeatureCollection",
  "features": [
    {
      "type": "Feature",
      "properties": {
        "norad_id": 66333,
        "name": "STARLINK-35400",
        "group": "last-30-days",
        "lat": -37.24993613963357,
        "lon": -35.952526696690704,
        "alt_km": 446.2224072888712,
        "timestamp": "2025-12-06T22:38:41.506377+00:00",
        "meta_object_name": "STARLINK-35400",
        "meta_object_id": "2025-253Q",
        "meta_epoch": "2025-12-06T14:00:01.999872",
        "meta_mean_motion": 15.4059146,
        "meta_eccentricity": 0.00014923,
        "meta_inclination": 43.0002,
        "meta_ra_of_asc_node": 20.8116,
        "meta_arg_of_pericenter": 278.0604,
        "meta_mean_anomaly": 179.3307,
        "meta_ephemeris_type": 0,
        "meta_classification_type": "U",
        "meta_norad_cat_id": 66333,
        "meta_element_set_no": 999,
        "meta_rev_at_epoch": 594,
        "meta_bstar": 0.0033242338,
        "meta_mean_motion_dot": 0.00140639,
        "meta_mean_motion_ddot": 0,
        "tle_line1": "1 66333U 25253Q   25340.58335648  .00140639  00000+0  33242-2 0  9992",
        "tle_line2": "2 66333  43.0002  20.8116 0001492 278.0604 179.3307 15.40591460  5946"
      },
      "geometry": {
        "type": "Point",
        "coordinates": [
          -35.952526696690704,
          -37.24993613963357
        ]
      }
    },
    {
      "type": "Feature",
      "properties": {
        "norad_id": 66334,
        "name": "STARLINK-35407",
        "group": "last-30-days",
        "lat": 4.673701354605013,
        "lon": -165.99377106187265,
        "alt_km": 443.254546361989,
        "timestamp": "2025-12-06T22:38:41.506388+00:00",
        "meta_object_name": "STARLINK-35407",
        "meta_object_id": "2025-253R",
        "meta_epoch": "2025-12-06T14:00:01.999872",
        "meta_mean_motion": 15.40656038,
        "meta_eccentricity": 0.00015368,
        "meta_inclination": 43.0008,
        "meta_ra_of_asc_node": 21.1152,
        "meta_arg_of_pericenter": 267.9039,
        "meta_mean_anomaly": 65.0639,
        "meta_ephemeris_type": 0,
        "meta_classification_type": "U",
        "meta_norad_cat_id": 66334,
        "meta_element_set_no": 999,
        "meta_rev_at_epoch": 594,
        "meta_bstar": 0.0021373806,
        "meta_mean_motion_dot": 0.00089907,
        "meta_mean_motion_ddot": 0,
        "tle_line1": "1 66334U 25253R   25340.58335648  .00089907  00000+0  21374-2 0  9996",
        "tle_line2": "2 66334  43.0008  21.1152 0001536 267.9039  65.0639 15.40656038  5947"
      },
      "geometry": {
        "type": "Point",
        "coordinates": [
          -165.99377106187265,
          4.673701354605013
        ]
      }
    },
    {
      "type": "Feature",
      "properties": {
        "norad_id": 66335,
        "name": "STARLINK-35417",
        "group": "last-30-days",
        "lat": 42.39542987805318,
        "lon": 120.77386628686168,
        "alt_km": 437.33280190298956,
        "timestamp": "2025-12-06T22:38:41.506398+00:00",
        "meta_object_name": "STARLINK-35417",
        "meta_object_id": "2025-253S",
        "meta_epoch": "2025-12-06T09:46:21.847584",
        "meta_mean_motion": 15.40614696,
        "meta_eccentricity": 8.192e-05,
        "meta_inclination": 43.0007,
        "meta_ra_of_asc_node": 22.3071,
        "meta_arg_of_pericenter": 252.95,
        "meta_mean_anomaly": 107.1267,
        "meta_ephemeris_type": 0,
        "meta_classification_type": "U",
        "meta_norad_cat_id": 66335,
        "meta_element_set_no": 999,
        "meta_rev_at_epoch": 594,
        "meta_bstar": 0.0055726197,
        "meta_mean_motion_dot": 0.00239254,
        "meta_mean_motion_ddot": 0,
        "tle_line1": "1 66335U 25253S   25340.40719731  .00239254  00000+0  55726-2 0  9997",
        "tle_line2": "2 66335  43.0007  22.3071 0000819 252.9500 107.1267 15.40614696  5949"
      },
      "geometry": {
        "type": "Point",
        "coordinates": [
          120.77386628686168,
          42.39542987805318
        ]
      }
    },
    {
      "type": "Feature",
      "properties": {
        "norad_id": 66336,
        "name": "STARLINK-35404",
        "group": "last-30-days",
        "lat": 0.4008002648410484,
        "lon": 19.012788983592877,
        "alt_km": 427.72099668991814,
        "timestamp": "2025-12-06T22:38:41.506409+00:00",
        "meta_object_name": "STARLINK-35404",
        "meta_object_id": "2025-253T",
        "meta_epoch": "2025-12-06T14:00:01.999872",
        "meta_mean_motion": 15.47657763,
        "meta_eccentricity": 9.07e-05,
        "meta_inclination": 43.0002,
        "meta_ra_of_asc_node": 20.6781,
        "meta_arg_of_pericenter": 282.2429,
        "meta_mean_anomaly": 230.2907,
        "meta_ephemeris_type": 0,
        "meta_classification_type": "U",
        "meta_norad_cat_id": 66336,
        "meta_element_set_no": 999,
        "meta_rev_at_epoch": 603,
        "meta_bstar": -0.042761312,
        "meta_mean_motion_dot": -0.0201748,
        "meta_mean_motion_ddot": 0,
        "tle_line1": "1 66336U 25253T   25340.58335648 -.02017480  00000+0 -42761-1 0  9991",
        "tle_line2": "2 66336  43.0002  20.6781 0000907 282.2429 230.2907 15.47657763  6037"
      },
      "geometry": {
        "type": "Point",
        "coordinates": [
          19.012788983592877,
          0.4008002648410484
        ]
      }
    },
    {
      "type": "Feature",
      "properties": {
        "norad_id": 66337,
        "name": "STARLINK-34783",
        "group": "last-30-days",
        "lat": 34.671577737787594,
        "lon": 151.23606478293286,
        "alt_km": 438.7958573802298,
        "timestamp": "2025-12-06T22:38:41.506420+00:00",
        "meta_object_name": "STARLINK-34783",
        "meta_object_id": "2025-253U",
        "meta_epoch": "2025-12-06T11:13:15.378240",
        "meta_mean_motion": 15.40699596,
        "meta_eccentricity": 0.00010956,
        "meta_inclination": 43.0035,
        "meta_ra_of_asc_node": 21.8982,
        "meta_arg_of_pericenter": 256.5329,
        "meta_mean_anomaly": 103.5406,
        "meta_ephemeris_type": 0,
        "meta_classification_type": "U",
        "meta_norad_cat_id": 66337,
        "meta_element_set_no": 999,
        "meta_rev_at_epoch": 595,
        "meta_bstar": 0.0022430851,
        "meta_mean_motion_dot": 0.00094563,
        "meta_mean_motion_ddot": 0,
        "tle_line1": "1 66337U 25253U   25340.46753910  .00094563  00000+0  22431-2 0  9991",
        "tle_line2": "2 66337  43.0035  21.8982 0001095 256.5329 103.5406 15.40699596  5951"
      },
      "geometry": {
        "type": "Point",
        "coordinates": [
          151.23606478293286,
          34.671577737787594
        ]
      }
    },
    {
      "type": "Feature",
      "properties": {
        "norad_id": 66338,
        "name": "STARLINK-35477",
        "group": "last-30-days",
        "lat": 42.85408490321834,
        "lon": 103.87456614857138,
        "alt_km": 437.76850013602325,
        "timestamp": "2025-12-06T22:38:41.506431+00:00",
        "meta_object_name": "STARLINK-35477",
        "meta_object_id": "2025-253V",
        "meta_epoch": "2025-12-06T12:56:17.754432",
        "meta_mean_motion": 15.40731489,
        "meta_eccentricity": 0.00012566,
        "meta_inclination": 43.0001,
        "meta_ra_of_asc_node": 21.5774,
        "meta_arg_of_pericenter": 245.4003,
        "meta_mean_anomaly": 114.6722,
        "meta_ephemeris_type": 0,
        "meta_classification_type": "U",
        "meta_norad_cat_id": 66338,
        "meta_element_set_no": 999,
        "meta_rev_at_epoch": 596,
        "meta_bstar": 0.0019165354,
        "meta_mean_motion_dot": 0.0008069,
        "meta_mean_motion_ddot": 0,
        "tle_line1": "1 66338U 25253V   25340.53909438  .00080690  00000+0  19165-2 0  9994",
        "tle_line2": "2 66338  43.0001  21.5774 0001256 245.4003 114.6722 15.40731489  5969"
      },
      "geometry": {
        "type": "Point",
        "coordinates": [
          103.87456614857138,
          42.85408490321834
        ]
      }
    },
    {
      "type": "Feature",
      "properties": {
        "norad_id": 66339,
        "name": "STARLINK-35443",
        "group": "last-30-days",
        "lat": -34.09631891124451,
        "lon": -114.5258453399512,
        "alt_km": 445.99933270522433,
        "timestamp": "2025-12-06T22:38:41.506441+00:00",
        "meta_object_name": "STARLINK-35443",
        "meta_object_id": "2025-253W",
        "meta_epoch": "2025-12-06T14:00:01.999872",
        "meta_mean_motion": 15.40660751,
        "meta_eccentricity": 0.00015965,
        "meta_inclination": 43.0009,
        "meta_ra_of_asc_node": 20.9614,
        "meta_arg_of_pericenter": 265.3323,
        "meta_mean_anomaly": 129.8299,
        "meta_ephemeris_type": 0,
        "meta_classification_type": "U",
        "meta_norad_cat_id": 66339,
        "meta_element_set_no": 999,
        "meta_rev_at_epoch": 598,
        "meta_bstar": 0.0022254319,
        "meta_mean_motion_dot": 0.00093685,
        "meta_mean_motion_ddot": 0,
        "tle_line1": "1 66339U 25253W   25340.58335648  .00093685  00000+0  22254-2 0  9997",
        "tle_line2": "2 66339  43.0009  20.9614 0001596 265.3323 129.8299 15.40660751  5989"
      },
      "geometry": {
        "type": "Point",
        "coordinates": [
          -114.5258453399512,
          -34.09631891124451
        ]
      }
    }
  ]
}